station_id,name,lat,lon,address,post_code,capacity,rental_methods,groups,nearby_distance
2,002 - Retiro I,-34.59242413,-58.37470989,AV. Dr. José María Ramos Mejía 1300,11111,40,"['KEY', 'TRANSITCARD', 'PHONE']",['RETIRO'],1000.0
3,003 - ADUANA,-34.61220714255728,-58.36912906378899,Av. Paseo Colón 380,C1063,28,"['KEY', 'TRANSITCARD', 'PHONE']",['MONSERRAT'],1000.0
4,004 - Plaza Roma,-34.6030082348981,-58.36885646243477,Av. Corrientes 100,11111,20,"['KEY', 'TRANSITCARD', 'PHONE']",['SAN NICOLAS'],1000.0
5,005 - Plaza Italia,-34.5805497,-58.4209542,Av. Sarmiento 2601,1111,42,"['KEY', 'TRANSITCARD', 'PHONE']",['PALERMO'],1000.0
6,006 - Parque Lezama,-34.628526,-58.369758,"Avenida Martin Garcia, 295",1111,20,"['KEY', 'TRANSITCARD', 'PHONE']",['SAN TELMO'],1000.0
7,007 - OBELISCO,-34.606498,-58.381098,CARLOS PELEGRINI 215,11111,24,"['KEY', 'TRANSITCARD', 'PHONE']",['SAN NICOLAS'],1000.0
8,008 - Congreso,-34.6094218,-58.3893364,"Cevallos, Virrey& Yrigoyen, Hipolito Av.",11111,23,"['KEY', 'TRANSITCARD', 'PHONE']",['SAN NICOLAS'],1000.0
9,009 - Parque Las Heras,-34.585443,-58.407741,"2300 Diaz, Cnel. Av. & French",11111,24,"['KEY', 'TRANSITCARD', 'PHONE']",['PALERMO'],1000.0
12,012 - Plaza Vicente Lopez,-34.5927096,-58.388807,Parana & Juncal,11111,16,"['KEY', 'TRANSITCARD', 'PHONE']",['RECOLETA'],1000.0
13,013 - ONCE,-34.61009,-58.406,Av. Pueyrredon & Av. Rivadavia,1111,30,"['KEY', 'TRANSITCARD', 'PHONE']",['BALVANERA'],1000.0
14,014 - Pacifico,-34.577424,-58.426387,"Santa Fe Av. & Bullrich, Int. Av.",11111,30,"['KEY', 'TRANSITCARD', 'PHONE']",['PALERMO'],1000.0
17,017 - Plaza Almagro,-34.6064101,-58.4187306,"441 Bulnes & Peron, Juan Domingo, Tte. General",11111,19,"['KEY', 'TRANSITCARD', 'PHONE']",['ALMAGRO'],1000.0
21,021 - Parque Patricios,-34.640111,-58.406432,Iguazu & Uspallata,1111,24,"['KEY', 'TRANSITCARD', 'PHONE']",['PARQUE PATRICIOS'],1000.0
22,022 - Arenales,-34.5938629,-58.3825498,Cerrito & Arenales,11111,20,"['KEY', 'TRANSITCARD', 'PHONE']",['RETIRO'],1000.0
23,023 - Suipacha,-34.600139,-58.379836,Suipacha & Viamonte,11111,12,"['KEY', 'TRANSITCARD', 'PHONE']",['SAN NICOLAS'],1000.0
24,024 - ALSINA,-34.610583,-58.3808943,Adolfo Alsina& Bernardo De Irigoyen,11111,18,"['KEY', 'TRANSITCARD', 'PHONE']",['MONSERRAT'],1609.34
25,025 - Plaza Guemes,-34.5894269,-58.4161178,"Salguero, Jeronimo & Mansilla, Lucio Norberto, General",11111,30,"['KEY', 'TRANSITCARD', 'PHONE']",['PALERMO'],1000.0
26,026 - JUANA MANSO I,-34.600752,-58.3638723,"Manso Juana & De La Barra, Emma",11111,30,"['KEY', 'TRANSITCARD', 'PHONE']",['PUERTO MADERO'],1609.34
27,027 - Montevideo,-34.599068,-58.3900887,Cordoba Av. & Montevideo,1111,20,"['KEY', 'TRANSITCARD', 'PHONE']",['SAN NICOLAS'],1000.0
29,029 - Parque Centenario,-34.6079414,-58.4335573,Av. Patricias Argentinas & Estivao,11111,29,"['KEY', 'TRANSITCARD', 'PHONE']",['CABALLITO'],1000.0
32,032 - Catedral,-34.60674458045258,-58.37365550287732,Bartolomé Mitre & San Martín,11111,18,"['KEY', 'TRANSITCARD', 'PHONE']",['SAN NICOLAS'],1000.0
33,033 - Facultad de Medicina,-34.5970909,-58.3989807,Pres. José Evaristo Uriburu 987,11111,19,"['KEY', 'TRANSITCARD', 'PHONE']",['RECOLETA'],1000.0
35,035 - INGENIERO BUTTY,-34.5964246,-58.371847,Ing. E. Butty 291,11111,30,"['KEY', 'TRANSITCARD', 'PHONE']",['RETIRO'],1000.0
36,036 - MAIPÚ,-34.6010599,-58.3745346,Tucumán 536,C1049,12,"['KEY', 'TRANSITCARD', 'PHONE']",['SAN NICOLAS'],1000.0
38,038 - Plaza Libertad,-34.5970497,-58.3828403,Cerrito 990 y Av. Marcelo T. De Alvear,11111,20,"['KEY', 'TRANSITCARD', 'PHONE']",['RETIRO'],1609.34
41,041 - PARQUE PATRICIOS II,-34.6371232,-58.4058883,Av Caseros 3015,1111,20,"['KEY', 'TRANSITCARD', 'PHONE']",['PARQUE PATRICIOS'],1000.0
43,334 - CENTRO DE EXPOSICIONES,-34.584018,-58.389921,2133 Figueroa Alcorta,1111,28,"['KEY', 'TRANSITCARD', 'PHONE']",['RECOLETA'],1000.0
44,044 - Ecoparque,-34.5755148,-58.4138829,"Av. Del Libertador, 3260",111,20,"['KEY', 'TRANSITCARD', 'PHONE']",['PALERMO'],1000.0
45,045 - Uruguay,-34.6018635,-58.3866934,561 Uruguay & Av. Tucuman,111,20,"['KEY', 'TRANSITCARD', 'PHONE']",['SAN NICOLAS'],1000.0
46,046 - Chile,-34.6163729,-58.37436969999999,Perú 718,C1068,18,"['KEY', 'TRANSITCARD', 'PHONE']",['SAN TELMO'],1000.0
48,034 - Colonia Express,-34.6236397,-58.3632448,Elvira Rawson de Dellepiane 150,C1107,16,"['KEY', 'TRANSITCARD', 'PHONE']",['PUERTO MADERO'],1000.0
49,049 - 33 Orientales,-34.6290527,-58.422611,Constitucion & Treinta Y Tres Orientales,11111,16,"['KEY', 'TRANSITCARD', 'PHONE']",['BOEDO'],1000.0
50,050 - Hospital Rivadavia,-34.5837348,-58.4010798,2516 Pereyra Lucena,11111,20,"['KEY', 'TRANSITCARD', 'PHONE']",['PALERMO'],1000.0
51,051 - TUCUMAN,-34.6014776,-58.3821261,Tucuman & 9 De Julio Av.,1111,12,"['KEY', 'TRANSITCARD', 'PHONE']",['SAN NICOLAS'],1000.0
54,054 - Acuña de Figueroa,-34.5982097,-58.4220694,Lavalle 4015,C1190,20,"['KEY', 'TRANSITCARD', 'PHONE']",['ALMAGRO'],1000.0
56,056 - Plaza Palermo Viejo,-34.588567,-58.425999,Costa Rica & Armenia,11111,20,"['KEY', 'TRANSITCARD', 'PHONE']",['PALERMO'],1000.0
57,057 - BELGRANO,-34.61324972988651,-58.370645128905494,Balcarce 482,C1064,12,"['KEY', 'TRANSITCARD', 'PHONE']",['MONSERRAT'],1000.0
58,058 - Ministro Carranza,-34.5752773,-58.4346883,Santa Fe Av. & Dorrego,11111,20,"['KEY', 'TRANSITCARD', 'PHONE']",['PALERMO'],1000.0
59,018 - Independencia,-34.617654,-58.380565,Idependencia y Bernardo de Irigoyen,11111,20,"['KEY', 'TRANSITCARD', 'PHONE']",['MONSERRAT'],1609.34
60,060 - 25 De Mayo,-34.6016509,-58.371079,527 25 De Mayo,11111,20,"['KEY', 'TRANSITCARD', 'PHONE']",['SAN NICOLAS'],1000.0
61,098 - BENITO JUAREZ,-34.6189273,-58.5051769, Benito Juarez 2231,C1417,12,"['KEY', 'TRANSITCARD', 'PHONE']",['MONTE CASTRO'],1000.0
63,063 - Reconquista,-34.59977772506695,-58.37468663054962,Viamonte 555,C1053,28,"['KEY', 'TRANSITCARD', 'PHONE']",['SAN NICOLAS'],1000.0
64,064 - RIOBAMBA,-34.5936508,-58.3941087,Riobamba 1264 & Juncal,11111,20,"['KEY', 'TRANSITCARD', 'PHONE']",['RECOLETA'],1000.0
65,065 - Julián Álvarez,-34.5873124,-58.4157873,3822 Guemes,11111,20,"['KEY', 'TRANSITCARD', 'PHONE']",['PALERMO'],1000.0
66,066 - Billinghurst,-34.5945475,-58.4138713,3508 Carcova,11111,20,"['KEY', 'TRANSITCARD', 'PHONE']",['RECOLETA'],1000.0
68,105 - PARQUE SAAVEDRA,-34.552148,-58.480464,García del Río 3590,11111,16,"['KEY', 'TRANSITCARD', 'PHONE']",['SAAVEDRA'],1000.0
69,069 - Ecuador,-34.5961006,-58.4046092,"1226 Ecuador & Mansilla, Lucio Norberto, General",111,15,"['KEY', 'TRANSITCARD', 'PHONE']",['RECOLETA'],1000.0
70,070 - ARAOZ,-34.5926862,-58.4260597,1413 Araoz & Gorriti CABA,1111,24,"['KEY', 'TRANSITCARD', 'PHONE']",['PALERMO'],1000.0
71,071 - CERRITO,-34.6026673,-58.3833559,Libertad & lavalle,11111,30,"['KEY', 'TRANSITCARD', 'PHONE']",['SAN NICOLAS'],1000.0
73,073 - Ruy Díaz de Guzmán,-34.6306814,-58.3718235,Avenida Martin Garcia y Ruy Díaz de Guzmán,1111111,20,"['KEY', 'TRANSITCARD', 'PHONE']",['BOCA'],1000.0
74,074 - INSTITUTO LELOIR,-34.60439,-58.43454,Juana De Ibarbourou & Av Patricias Argentinas,1111,30,"['KEY', 'TRANSITCARD', 'PHONE']",['CABALLITO'],1000.0
75,075 - Plaza Primero de Mayo,-34.6122976,-58.3989871,238 Pichincha,11111,20,"['KEY', 'TRANSITCARD', 'PHONE']",['BALVANERA'],1000.0
76,076 - Ayacucho,-34.6074084,-58.3950548,"Ayacucho &Peron, Juan Domingo, Tte. General",11111,20,"['KEY', 'TRANSITCARD', 'PHONE']",['BALVANERA'],1000.0
77,109 - ESTACION PUEYRREDON,-34.581135,-58.501487,Bolivia 5071,1111,16,"['KEY', 'TRANSITCARD', 'PHONE']",['VILLA PUYRREDON'],1000.0
79,079 - AZUCENA VILLAFLOR,-34.61189,-58.36393,"Villaflor, Azucena & Dealessi, Pierina",C1107CID,30,"['KEY', 'TRANSITCARD', 'PHONE']",['PUERTO MADERO'],1609.34
80,080 - VALLE,-34.6245807,-58.43412319999999,Valle 486,C1424,12,"['KEY', 'TRANSITCARD', 'PHONE']",['CABALLITO'],1000.0
82,082 - HOSPITAL ITALIANO,-34.6078917,-58.4263947,394 Rawson & Potosi,11111,19,"['KEY', 'TRANSITCARD', 'PHONE']",['ALMAGRO'],1000.0
83,083 - Paraná,-34.603269,-58.3893728,1590 Lavalle,11111,28,"['KEY', 'TRANSITCARD', 'PHONE']",['SAN NICOLAS'],1000.0
85,085 - AGUERO,-34.5948057,-58.4091784,"Aguero & Mansilla, Lucio Norberto, General",11111,20,"['KEY', 'TRANSITCARD', 'PHONE']",['RECOLETA'],1000.0
86,086 - SAAVEDRA,-34.6212681,-58.4016808,1019 Saavedra,11111,19,"['KEY', 'TRANSITCARD', 'PHONE']",['SAN CRISTOBAL'],1000.0
87,087 - Guayaquil,-34.619845,-58.4314942,Guayaquil & Doblas,1111,16,"['KEY', 'TRANSITCARD', 'PHONE']",['CABALLITO'],1000.0
89,089 - Cabello,-34.5825475,-58.4056671,3082 Cabello,1111,20,"['KEY', 'TRANSITCARD', 'PHONE']",['PALERMO'],1000.0
91,091 - Pasco,-34.6174482,-58.397602,708 Pasco & Chile,1111,24,"['KEY', 'TRANSITCARD', 'PHONE']",['BALVANERA'],1000.0
92,092 - Salcedo,-34.6316444,-58.4053386,2908 Salcedo & Dean Funes,111,20,"['KEY', 'TRANSITCARD', 'PHONE']",['PARQUE PATRICIOS'],1000.0
93,093 - CARLOS CALVO,-34.620798,-58.3944635,Sarandi 1010,1111,20,"['KEY', 'TRANSITCARD', 'PHONE']",['SAN CRISTOBAL'],1000.0
94,094 - GÚZMAN,-34.591511,-58.449652,Av Guzman 129 & Leiva,1111,30,"['KEY', 'TRANSITCARD', 'PHONE']",['ZONA 1'],1000.0
96,096 - Carlos Gardel,-34.6027814,-58.4116586,3302 Guardia Vieja & Aguero,11111,16,"['KEY', 'TRANSITCARD', 'PHONE']",['BALVANERA'],1000.0
98,037- Claudia Pía Baudracco,-34.6081643,-58.3779002,Esmeralda y Rivadavia,11111,16,"['KEY', 'TRANSITCARD', 'PHONE']",['MONSERRAT'],1609.34
99,099 - Malabia,-34.5960961,-58.435408,780 Malabia & Loyola,11111,20,"['KEY', 'TRANSITCARD', 'PHONE']",['VILLA CRESPO'],1000.0
101,101 - Fitz Roy,-34.5891857,-58.4424397,Fitz Roy  1092 & Loyola,11111,20,"['KEY', 'TRANSITCARD', 'PHONE']",['ZONA 1'],1000.0
102,102 - ROSETI,-34.5851209,-58.4492989,ROSETI 390,C1427,20,"['KEY', 'TRANSITCARD', 'PHONE']",['ZONA 1'],1000.0
104,104 - Federico Lacroze,-34.587617,-58.455212,Av. Guzman 1100 & Av. Corrientes,111111,28,"['KEY', 'TRANSITCARD', 'PHONE']",['ZONA 1'],1000.0
107,107 - HOSPITAL GARRAHAN,-34.630377179999996,-58.395844,Brasil 2290,1260,16,"['KEY', 'TRANSITCARD', 'PHONE']",['PARQUE PATRICIOS'],1000.0
111,111 - MACACHA GUEMES,-34.6054877,-58.3646858,Macacha Guemes 350,1111,30,"['KEY', 'TRANSITCARD', 'PHONE']",['PUERTO MADERO'],1609.34
112,112 - 9 de Julio,-34.612075,-58.380384,Bernardo Irigoyen 320,11111,20,"['KEY', 'TRANSITCARD', 'PHONE']",['MONSERRAT'],1609.34
114,114 - TORRE MACRO,-34.59398891976011,-58.37142444536896, Av. Eduardo Madero 1180,11111,12,"['KEY', 'TRANSITCARD', 'PHONE']",['RETIRO'],1609.34
116,116 - HOSPITAL ALEMÁN,-34.5921708,-58.4025894,Beruti & Ecuador,1111,12,"['KEY', 'TRANSITCARD', 'PHONE']",['RECOLETA'],1000.0
117,117 - HUMBERTO 1°,-34.61955283137281,-58.373159304761074,Av. Carlos Calvo 513,11111,20,"['KEY', 'TRANSITCARD', 'PHONE']",['SAN TELMO'],1000.0
118,118 - MEXICO,-34.6170196,-58.4026531,Saavedra & Mexico,11111,20,"['KEY', 'TRANSITCARD', 'PHONE']",['BALVANERA'],1000.0
120,120 - HOSPITAL RAMOS MEJIA,-34.617509,-58.4092876,3084 Agrelo,1111,18,"['KEY', 'TRANSITCARD', 'PHONE']",['BALVANERA'],1000.0
121,121 - YATAY,-34.6011732,-58.4285093,925 Yatay& Humahuaca,1111,19,"['KEY', 'TRANSITCARD', 'PHONE']",['ALMAGRO'],1000.0
122,122 - COSTA RICA,-34.5915614,-58.41981629999999,COSTA RICA 4060,C1176,24,"['KEY', 'TRANSITCARD', 'PHONE']",['PALERMO'],1000.0
124,124 - UGARTECHE,-34.580538,-58.411965,3050 Ugarteche,C3123,20,"['KEY', 'TRANSITCARD', 'PHONE']",['PALERMO'],1000.0
126,126 - Ministerio de Justicia y Seguridad,-34.63922546953217,-58.36958898591383,Olavarría 1201,C1267,16,"['KEY', 'TRANSITCARD', 'PHONE']",['BOCA'],1000.0
128,128 - PARQUE DEL BAJO,-34.60515159,-58.36882117,Tte. Gral. Juan Domingo Perón 133,1111,27,"['KEY', 'TRANSITCARD', 'PHONE']",['SAN NICOLAS'],1000.0
130,130 - RETIRO II,-34.5917376,-58.37436403,Av. Dr. José María Ramos Mejía 1350,1111,40,"['KEY', 'TRANSITCARD', 'PHONE']",['RETIRO'],1609.34
131,131- HOSPITAL DE CLÍNICAS,-34.5984043,-58.3990158,"Uriburu Jose E., Pres. & Paraguay",1111,16,"['KEY', 'TRANSITCARD', 'PHONE']",['RECOLETA'],1000.0
132,132 - CORRIENTES,-34.6033685,-58.372763,Reconquista & Corrientes Av.,1111,12,"['KEY', 'TRANSITCARD', 'PHONE']",['SAN NICOLAS'],1000.0
134,134 - SOLDADO DE LA FRONTERA,-34.683188,-58.468952,Ana Díaz 5899,C1439,20,"['KEY', 'TRANSITCARD', 'PHONE']",['VILLA LUGANO'],1000.0
135,135 - MARCELO T. DE ALVEAR,-34.5976425,-58.378363,Esmeralda & Paraguay,C1057,20,"['KEY', 'TRANSITCARD', 'PHONE']",['SAN NICOLAS'],1000.0
137,137 - AZOPARDO Y CHILE,-34.6155977,-58.3674923,AZOPARDO 700,1111,23,"['KEY', 'TRANSITCARD', 'PHONE']",['MONSERRAT'],1609.34
138,138 - Hospital Britanico,-34.6353595,-58.3876724,153 Perdriel,1111,12,"['KEY', 'TRANSITCARD', 'PHONE']",['BARRACAS'],1000.0
144,144 - PUEYRREDÓN,-34.6018744,-58.4060944,684 Boulogne Sur Mer & Tucuman,1111,20,"['KEY', 'TRANSITCARD', 'PHONE']",['BALVANERA'],1000.0
146,146 - Hospital Francés,-34.6221118,-58.4078419,"3024 Calvo, Carlos",1111,20,"['KEY', 'TRANSITCARD', 'PHONE']",['SAN CRISTOBAL'],1000.0
148,323 - Parque Avellaneda II,-34.6451767192088,-58.484555279762255,Av. Directorio 4295 ,1111,16,"['KEY', 'TRANSITCARD', 'PHONE']",['PARQUE AVELLANEDA'],1000.0
149,149 - LIMA,-34.6153266,-58.3813642,México & Lima,11111,16,"['KEY', 'TRANSITCARD', 'PHONE']",['MONSERRAT'],1609.34
150,150 - RODRIGO BUENO,-34.6187547,-58.3554654,Av. España 2200,1111,34,"['KEY', 'TRANSITCARD', 'PHONE']",['PUERTO MADERO'],1609.34
152,152 - JULIETA LANTERI,-34.6181645,-58.3596311,"Vera Peñaloza, Rosario 599 & Lanteri Julieta",11111,28,"['KEY', 'TRANSITCARD', 'PHONE']",['PUERTO MADERO'],1609.34
153,153 - JUAN MANUEL DE BLANES,-34.6310284,-58.36288800000001,Av. Almirante Brown 653,C1155,20,"['KEY', 'TRANSITCARD', 'PHONE']",['BOCA'],1000.0
155,155 - Parque José Evaristo Uriburu,-34.645082199430064,-58.41749173359584, Quilmes 491,C1437,12,"['KEY', 'TRANSITCARD', 'PHONE']",['NUEVA POMPEYA'],1000.0
156,156 - Plaza Alemania,-34.5775895,-58.4074696,2939 Cavia,11111,19,"['KEY', 'TRANSITCARD', 'PHONE']",['PALERMO'],1000.0
158,158 - VILLARROEL,-34.592735,-58.4450697,1321 Villarroel & Humboldt CABA,1111,20,"['KEY', 'TRANSITCARD', 'PHONE']",['ZONA 1'],1000.0
161,161 - Humahuaca,-34.6020779,-58.4196761,3912 Humahuaca,11111,20,"['KEY', 'TRANSITCARD', 'PHONE']",['ALMAGRO'],1000.0
162,162 - LARREA Y BARTOLOMÉ MITRE,-34.608985,-58.401924,80 Larrea,C1030,20,"['KEY', 'TRANSITCARD', 'PHONE']",['BALVANERA'],1000.0
163,163 - ONCE II,-34.6095663,-58.4064308,Bartolome Mitre & Av. Puyrredon,11111,30,"['KEY', 'TRANSITCARD', 'PHONE']",['BALVANERA'],1000.0
164,164 - FACULTAD DE INGENIERIA,-34.617301,-58.3698984,AV. PASEO COLÓN 811,1111,20,"['KEY', 'TRANSITCARD', 'PHONE']",['SAN TELMO'],1000.0
165,165 - PLAZA MONSEÑOR MIGUEL DE ANDREA,-34.597048,-58.407614,Dr Tomas Manuel De  Anchorena &  Jose A. Cabrera,C1170,12,"['KEY', 'TRANSITCARD', 'PHONE']",['RECOLETA'],1000.0
166,166 - Cementerio de Recoleta,-34.588346663239754,-58.394147942865644,Vicente López 2100,1111,11,"['KEY', 'TRANSITCARD', 'PHONE']",['RECOLETA'],1000.0
167,275 - PLAZA 24 DE SEPTIEMBRE,-34.606984,-58.44854,1355 San Martin Av.,1111,24,"['KEY', 'TRANSITCARD', 'PHONE']",['VILLA CRESPO'],1000.0
168,168 - Estados Unidos,-34.6186217,-58.3812271,Estados Unidos & Lima,11111,19,"['KEY', 'TRANSITCARD', 'PHONE']",['CONSTITUCION'],1609.34
171,171 - Pasteur,-34.6032813,-58.3997553,519 Pasteur,11111,20,"['KEY', 'TRANSITCARD', 'PHONE']",['BALVANERA'],1000.0
172,172 - BRASIL,-34.625426,-58.371082,BRASIL&DEFENSA,C1143,16,"['KEY', 'TRANSITCARD', 'PHONE']",['SAN TELMO'],1000.0
174,174 - MINISTERIO DE EDUCACION,-34.597225,-58.391768,Marcelo T. de Alvear & Rodriguez Peña,C1021,20,"['KEY', 'TRANSITCARD', 'PHONE']",['RECOLETA'],1000.0
175,147 - Constitución,-34.626851,-58.380707,Avenida Juan de Garay 1050,111,54,"['KEY', 'TRANSITCARD', 'PHONE']",['CONSTITUCION'],984916.08
176,067 - PARQUE SARMIENTO I,-34.555254,-58.494845,Av. Dr. Ricardo Balbín 4402,1111,15,"['KEY', 'TRANSITCARD', 'PHONE']",['SAAVEDRA'],1000.0
177,177 -PLANETARIO,-34.568165,-58.412121,Av Casares y Av Belisario Roldan,11111,12,"['KEY', 'TRANSITCARD', 'PHONE']",['PALERMO'],1000.0
179,179 - CASA SAN,-34.6384786,-58.3642885,Olavarría 811,1111,16,"['KEY', 'TRANSITCARD', 'PHONE']",['BOCA'],1000.0
181,181 - BILLINGHURST Y MANSILLA,-34.5926649,-58.4120072,"1520 Billinghurst & Mansilla, Lucio Norberto, General",11111,20,"['KEY', 'TRANSITCARD', 'PHONE']",['RECOLETA'],1000.0
182,182 - RAVIGNANI Y GUATEMALA,-34.5780479,-58.4352466,"2185 Ravignani, Emilio, Dr. & Guatemala",1111,20,"['KEY', 'TRANSITCARD', 'PHONE']",['PALERMO'],1000.0
183,183 - VIRREY CEVALLOS,-34.6156994,-58.3899728,Mexico 1652,11111,28,"['KEY', 'TRANSITCARD', 'PHONE']",['MONSERRAT'],1609.34
184,184 - Pedro Echague,-34.6306129,-58.3913419,Pedro Echague 1878 & Combate De Los Pozos,11111,20,"['KEY', 'TRANSITCARD', 'PHONE']",['PARQUE PATRICIOS'],1000.0
186,186 - MANZANA 66,-34.6136356,-58.4064415,2875 Moreno,11111,20,"['KEY', 'TRANSITCARD', 'PHONE']",['BALVANERA'],1000.0
187,261 - QUINTEROS LIDORO,-34.552571,-58.450897,"1483 Quinteros, Lidoro J. Av.",1111,16,"['KEY', 'TRANSITCARD', 'PHONE']",['BELGRANO'],1000.0
188,373 - Jorgelina De Simone,-34.62393,-58.39125,Cochabamba 1799,1111,24,"['KEY', 'TRANSITCARD', 'PHONE']",['CONSTITUCION'],984916.08
189,189 - POSADAS,-34.5886889,-58.3852113,1350 Posadas,11111,20,"['KEY', 'TRANSITCARD', 'PHONE']",['RETIRO'],1609.34
190,190 - JUNCAL,-34.5850763,-58.4111136,"Juncal & Salguero, Jeronimo",11111,20,"['KEY', 'TRANSITCARD', 'PHONE']",['PALERMO'],1000.0
191,191 - Rivadavia y 9 de Julio,-34.6079305,-58.3808358,Pellegrini Y Rivadavia Av.,11111,16,"['KEY', 'TRANSITCARD', 'PHONE']",['SAN NICOLAS'],1000.0
193,193 - ARENALES Y AGUERO,-34.5908626,-58.4061652,Arenales y Aguero,1111,20,"['KEY', 'TRANSITCARD', 'PHONE']",['RECOLETA'],1000.0
194,194 - PERÓN Y ACUÑA DE FIGUEROA,-34.6060758,-58.4224635,3997 TTE. GENERAL JUAN DOMINGO PERON,1111,16,"['KEY', 'TRANSITCARD', 'PHONE']",['ALMAGRO'],1000.0
196,196 - HOSPITAL ARGERICH,-34.6277671,-58.36602490000001,750 Pi y Margall,11111,20,"['KEY', 'TRANSITCARD', 'PHONE']",['BOCA'],1000.0
197,197 - PLAZA CIUDAD DE UDINE,-34.620998,-58.493044,Mercedes 1480,111111,20,"['KEY', 'TRANSITCARD', 'PHONE']",['FLORESTA'],1000.0
199,199 - ESTADOS UNIDOS Y BOEDO,-34.6222601,-58.4160137,3568 Estados Unidos & Boedo Av.,11111,20,"['KEY', 'TRANSITCARD', 'PHONE']",['BOEDO'],20000.0
200,200 - AUSTRIA Y FRENCH,-34.5882997,-58.4042608,Austria 2075,C1425,16,"['KEY', 'TRANSITCARD', 'PHONE']",['RECOLETA'],500.0
202,001 - FACULTAD DE DERECHO,-34.583749,-58.390602,Av. Pres. Figueroa Alcorta 2120,11111,30,"['KEY', 'TRANSITCARD', 'PHONE']",['RECOLETA'],1000.0
203,108 - Usina del Arte,-34.628757,-58.356259,"Caffarena, Agustin R. & Don Pedro De Mendoza Av.",11111,24,"['KEY', 'TRANSITCARD', 'PHONE']",['BOCA'],1000.0
204,167 - Hipólito Yrigoyen,-34.614948,-58.427818,"4300 Yrigoyen, Hipolito Av.",11111,23,"['KEY', 'TRANSITCARD', 'PHONE']",['ALMAGRO'],10000.0
206,159 - Fitz Roy & Gorriti,-34.58495,-58.437339,Fitz Roy & Gorriti,11111,16,"['KEY', 'TRANSITCARD', 'PHONE']",['PALERMO'],1000.0
207,123 - BASUALDO Y RODO,-34.65237685302847,-58.487359356906865,Guardia Nacional 1700,11111,16,"['KEY', 'TRANSITCARD', 'PHONE']",['MATADEROS'],1000.0
208,145 - RAVIGNANI,-34.5807161,-58.43840400000001,EMILIO RAVIGNANI 1802,C1414,20,"['KEY', 'TRANSITCARD', 'PHONE']",['PALERMO'],1000.0
210,335 - General Urquiza,-34.572165,-58.411278,Figueroa Alcorta & Sarmiento,11111,20,"['KEY', 'TRANSITCARD', 'PHONE']",['PALERMO'],1000.0
212,129 - Velasco,-34.600275,-58.434875,J.Ramirez de Velasco 285,C1414,20,"['KEY', 'TRANSITCARD', 'PHONE']",['VILLA CRESPO'],1000.0
213,136 - Acevedo,-34.599659,-58.442685,Acevedo y Padilla,11111,20,"['KEY', 'TRANSITCARD', 'PHONE']",['VILLA CRESPO'],1000.0
215,113 - Guatemala,-34.585878,-58.424996,Guatemala 4773,11111,20,"['KEY', 'TRANSITCARD', 'PHONE']",['PALERMO'],1000.0
216,059 - Coronel Diaz,-34.589968,-58.411493,Guemes 3330 & Coronel Diaz,11111,20,"['KEY', 'TRANSITCARD', 'PHONE']",['PALERMO'],1000.0
219,140 - Las Casas,-34.6360274,-58.4156332,Metan 3661,11111,23,"['KEY', 'TRANSITCARD', 'PHONE']",['BOEDO'],1000.0
220,097 - Avelino Diaz,-34.635128,-58.427573,Avelino Diaz&Doblas,11111,16,"['KEY', 'TRANSITCARD', 'PHONE']",['PARQUE CHACABUCO'],1000.0
222,160 - Godoy Cruz y Libertador,-34.5759189160704,-58.41854288458634,Av. Cerviño 4301,11111,20,"['KEY', 'TRANSITCARD', 'PHONE']",['PALERMO'],1000.0
223,178 - José Marmol,-34.6234,-58.424853,803 José Marmol,11111,16,"['KEY', 'TRANSITCARD', 'PHONE']",['BOEDO'],1000.0
227,188 - Aranguren,-34.61036075,-58.43276297,Dr. Juan Felipe Aranguren 131,11111,20,"['KEY', 'TRANSITCARD', 'PHONE']",['CABALLITO'],1000.0
228,010 - Madero UCA,-34.6164879,-58.3656683,"1600 Moreau De Justo, Alicia Av.",C1107,16,"['KEY', 'TRANSITCARD', 'PHONE']",['PUERTO MADERO'],1000.0
229,243 - PLAZOLETA CELEDONIO FLORES,-34.581576,-58.45153,Cordoba 6599,11111,11,"['KEY', 'TRANSITCARD', 'PHONE']",['ZONA 1'],1000.0
230,259 - PLAZA CASTELLI,-34.5678255,-58.4645037,Echeverria 3249,11111,16,"['KEY', 'TRANSITCARD', 'PHONE']",['BELGRANO'],1000.0
231,384 - PLAZA BENITO NAZAR,-34.60511787,-58.445999589,VALENTIN VIRASORO 1349,11111,16,"['KEY', 'TRANSITCARD', 'PHONE']",['VILLA CRESPO'],1000.0
232,252 - Tamborini,-34.5599779,-58.4790578,Tamborini 3821,11111,20,"['KEY', 'TRANSITCARD', 'PHONE']",['COGHLAN'],1000.0
234,344 - UNIVERSIDAD DI TELLA,-34.5480059,-58.44694390000001,Figueroa Alcorta 7350,C1428,20,"['KEY', 'TRANSITCARD', 'PHONE']",['BELGRANO'],1000.0
235,281 - Villa Urquiza,-34.573734,-58.48692409,Av. Triunvirato 4800,1111,24,"['KEY', 'TRANSITCARD', 'PHONE']",['VILLA URQUIZA'],1000.0
236,254 - Plaza Rafael Hernandez,-34.562161,-58.455166,Vuelta de Obligado 2004,11111,16,"['KEY', 'TRANSITCARD', 'PHONE']",['BELGRANO'],1000.0
237,302 - ESTACION VILLA LURO,-34.63670935917866,-58.50135525810292,Virgilio 90,1111,16,"['KEY', 'TRANSITCARD', 'PHONE']",['VILLA LURO'],1609.34
239,391 - Plaza República de Ecuador,-34.56533652,-58.42062076,Av. Pres. Figueroa Alcorta 5201,11111,20,"['KEY', 'TRANSITCARD', 'PHONE']",['PALERMO'],1000.0
241,348 - Villa del Parque,-34.600874,-58.494123,"Gutierrez, Ricardo 3105",11111,11,"['KEY', 'TRANSITCARD', 'PHONE']",['VILLA DEL PARQUE'],1000.0
242,103 - MALBA,-34.57694914795284,-58.40398420287856,Av. Pres. Figueroa Alcorta 3451,11111,32,"['KEY', 'TRANSITCARD', 'PHONE']",['PALERMO'],1000.0
245,248 - Husares,-34.552594,-58.4429397,Husares 2201,11111,15,"['KEY', 'TRANSITCARD', 'PHONE']",['BELGRANO'],1000.0
247,282 - Tronador,-34.5838957,-58.466494,Triunvirato Av. & Tronador,11111,18,"['KEY', 'TRANSITCARD', 'PHONE']",['VILLA ORTUZAR'],1000.0
248,346 - Plaza Zapiola,-34.573522,-58.474635,2001 Donado,11111,24,"['KEY', 'TRANSITCARD', 'PHONE']",['VILLA URQUIZA'],1000.0
251,388 - Plaza Jose C Paz,-34.641728,-58.402483,Dr. Prof. Pedro Chutro 2881,1111,12,"['KEY', 'TRANSITCARD', 'PHONE']",['PARQUE PATRICIOS'],1000.0
252,331 - CALIFORNIA,-34.647121,-58.374336,California 1774 y General Hornos,1111,24,"['KEY', 'TRANSITCARD', 'PHONE']",['BARRACAS'],1000.0
253,383 - BOEDO Y VENEZUELA,-34.6163544,-58.4170737,BOEDO 339,C1210,16,"['KEY', 'TRANSITCARD', 'PHONE']",['ALMAGRO'],1000.0
254,276 - PRIMERA JUNTA,-34.62079441851816,-58.4413509067459,Av. Rivadavia 5408 ,C1424,16,"['KEY', 'TRANSITCARD', 'PHONE']",['CABALLITO'],1000.0
255,374 - Puan,-34.622092,-58.448547,Yerbal 1290,1111,20,"['KEY', 'TRANSITCARD', 'PHONE']",['CABALLITO'],1000.0
257,264 - Plaza Marcos Sastre,-34.570825,-58.481236,Miller & Monroe,11111,24,"['KEY', 'TRANSITCARD', 'PHONE']",['VILLA URQUIZA'],1000.0
258,336 - La Pampa,-34.565521,-58.455334,La Pampa 2512 & Ciudad de la Paz,11111,16,"['KEY', 'TRANSITCARD', 'PHONE']",['BELGRANO'],1000.0
259,290 - Club Excursionistas,-34.5591522,-58.4441762,Migueletes 1782 (y La Pampa),C1426,16,"['KEY', 'TRANSITCARD', 'PHONE']",['BELGRANO'],1000.0
260,371 - Paseo de las Americas,-34.5530794109,-58.43522348866,Av. Pres Figueroa Alcorta 6400,11111,12,"['KEY', 'TRANSITCARD', 'PHONE']",['BELGRANO'],1000.0
261,272 - Plaza Bruno Giordano,-34.616151,-58.440584,Bruno Giordano&Neuquen,11111,16,"['KEY', 'TRANSITCARD', 'PHONE']",['CABALLITO'],1000.0
262,349 - Plaza Saenz Peña,-34.6097088334705,-58.46729693359809,Andrés Lamas 1699,11111,16,"['KEY', 'TRANSITCARD', 'PHONE']",['VILLA GENERAL MITRE'],1000.0
263,270 - PLAZA DEL ANGEL GRIS,-34.622003,-58.457555,Calcena & Avellaneda Av.,1111,20,"['KEY', 'TRANSITCARD', 'PHONE']",['FLORES'],1000.0
264,283 - BALBIN II,-34.5559308,-58.4812325,Av. Dr. Ricardo Balbín y Crisólogo Larralde,1111,16,"['KEY', 'TRANSITCARD', 'PHONE']",['SAAVEDRA'],1000.0
265,361 - Plaza Don Segundo Sombra,-34.64196,-58.4505,2347 Santander,1111,28,"['KEY', 'TRANSITCARD', 'PHONE']",['FLORES'],1000.0
267,315 - BEIRO Y SAN MARTÍN,-34.5976121,-58.4985424,3209 Av. Francisco Beiro,1111,16,"['KEY', 'TRANSITCARD', 'PHONE']",['VILLA DEVOTO'],1000.0
268,399 - GARCIA DEL RIO,-34.5503,-58.477,Av. García del Río 3182,1111,36,"['KEY', 'TRANSITCARD', 'PHONE']",['SAAVEDRA'],1000.0
269,260 - SAN MIGUEL DE GARICOITS,-34.577329,-58.457799,"Delgado & Loreto, Virrey",1111,18,"['KEY', 'TRANSITCARD', 'PHONE']",['COLEGIALES'],1000.0
270,370 - Beauchef,-34.640114,-58.43026,1995 Beauchef,1111,27,"['KEY', 'TRANSITCARD', 'PHONE']",['PARQUE CHACABUCO'],1000.0
271,365 - Venancio Flores,-34.629967,-58.473725,Venancio Flores 3170,11111,19,"['KEY', 'TRANSITCARD', 'PHONE']",['FLORES'],1000.0
273,223 - GAINZA,-34.616758,-58.446751,"494 Gainza, Martin De, Gral.",1111,16,"['KEY', 'TRANSITCARD', 'PHONE']",['CABALLITO'],1000.0
275,256 - PLAZA NORUEGA,-34.562277,-58.459289,Amenabar y Mendoza,1111,20,"['KEY', 'TRANSITCARD', 'PHONE']",['BELGRANO'],1000.0
277,292 - PLAZA BOLIVIA,-34.563539,-58.436115,Olleros Av. & Del Libertador Av.,1111,17,"['KEY', 'TRANSITCARD', 'PHONE']",['PALERMO'],1000.0
278,233 - MONROE,-34.564122,-58.469813,2519 Superi,1111,16,"['KEY', 'TRANSITCARD', 'PHONE']",['COGHLAN'],1000.0
280,222 - SIMON BOLIVAR,-34.633528,-58.449379,"1701 Fernandez Moreno, Baldomero",1111,28,"['KEY', 'TRANSITCARD', 'PHONE']",['PARQUE CHACABUCO'],1000.0
281,350 - Plaza Irlanda,-34.613777999999996,-58.458315,Av. Gaona 2200,1111,24,"['KEY', 'TRANSITCARD', 'PHONE']",['CABALLITO'],1000.0
284,229 - RIGLOS,-34.631018,-58.435056,1019 Riglos,1111,20,"['KEY', 'TRANSITCARD', 'PHONE']",['PARQUE CHACABUCO'],1000.0
289,255 - BARRANCAS DE BELGRANO,-34.559801,-58.448314,"Sucre, Antonio Jose De, Mcal. Y Vertiz Virrey Av.",1111,24,"['KEY', 'TRANSITCARD', 'PHONE']",['BELGRANO'],1000.0
291,244 - UADE,-34.617247,-58.381627,Lima 750,1111,15,"['KEY', 'TRANSITCARD', 'PHONE']",['MONSERRAT'],1609.34
299,221 - CULPINA,-34.631705,-58.466143,Culpina 121,11111,18,"['KEY', 'TRANSITCARD', 'PHONE']",['FLORES'],1000.0
301,309 - UTN II,-34.66036165776025,-58.4676386893849,Saraza y Mozart,1407,19,"['KEY', 'TRANSITCARD', 'PHONE']",['VILLA SOLDATI'],1000.0
302,340 - PLAZA NUEVA POMPEYA,-34.6518464,-58.415771,3817 Traful,1111,16,"['KEY', 'TRANSITCARD', 'PHONE']",['NUEVA POMPEYA'],144840.6
304,395 - Agronomia II,-34.5893,-58.4848,Av. Francisco Beiró 2120,1111,20,"['KEY', 'TRANSITCARD', 'PHONE']",['AGRONOMIA'],1000.0
307,341 - COMUNA 4,-34.6499971,-58.42477299999999,AV PERITO MORENO 2881,C1437,14,"['KEY', 'TRANSITCARD', 'PHONE']",['NUEVA POMPEYA'],1000.0
308,251 - Solar de la Abadía,-34.567633,-58.436752,Maure 1819,11111,28,"['KEY', 'TRANSITCARD', 'PHONE']",['PALERMO'],1000.0
309,298 - PLAZA DR. JUAN B. TERAN,-34.62141207128675,-58.51978098730658,Nogoya 5525,11111,16,"['KEY', 'TRANSITCARD', 'PHONE']",['VILLA REAL'],1000.0
310,356 - ESTACIÓN LUGANO,-34.67948324169569,-58.474248522546844,Martiniano Leguizamón 4401,11111,12,"['KEY', 'TRANSITCARD', 'PHONE']",['VILLA LUGANO'],1000.0
311,213 - Hospital Alvear,-34.5972098,-58.47421143,Av. Warnes 2626,11111,20,"['KEY', 'TRANSITCARD', 'PHONE']",['PATERNAL'],1000.0
316,205 - SAN MARTIN,-34.605567,-58.453475,1471 Cucha Cucha,1111,27,"['KEY', 'TRANSITCARD', 'PHONE']",['VILLA CRESPO'],1000.0
318,285 - ESPINOSA,-34.603936,-58.457317,1785 Espinosa,1111,20,"['KEY', 'TRANSITCARD', 'PHONE']",['VILLA CRESPO'],1000.0
322,289 - MONTAÑESES,-34.551304,-58.454181,2786 Montañeses,1111,20,"['KEY', 'TRANSITCARD', 'PHONE']",['BELGRANO'],1000.0
323,240 - ECHEVERRIA,-34.565409,-58.459298,1981 Vidal,1111,24,"['KEY', 'TRANSITCARD', 'PHONE']",['BELGRANO'],1000.0
324,280 - JURAMENTO,-34.578933,-58.4840556,5209 Juramento,1111,16,"['KEY', 'TRANSITCARD', 'PHONE']",['VILLA URQUIZA'],1000.0
327,366 - VILLA OLÍMPICA,-34.677130515662185,-58.454286054001386,Escalada 4347,1111,24,"['KEY', 'TRANSITCARD', 'PHONE']",['VILLA LUGANO'],1000.0
329,100 - Plaza Gurruchaga,-34.593141,-58.435187,1078 Gurruchaga,1111,20,"['KEY', 'TRANSITCARD', 'PHONE']",['VILLA CRESPO'],1000.0
330,148 -La Paternal,-34.6008306,-58.4721271,PUNTA  ARENAS  1798,C1416,20,"['KEY', 'TRANSITCARD', 'PHONE']",['PATERNAL'],1000.0
333,203 - Beiro,-34.6008,-58.50335,"Beiro 3572, CABA",1111,20,"['KEY', 'TRANSITCARD', 'PHONE']",['DEVOTO'],1000.0
335,206 - Galicia,-34.615944999999996,-58.47098,2502 Galicia,1111,28,"['KEY', 'TRANSITCARD', 'PHONE']",['VILLA GENERAL MITRE'],1000.0
336,207 - PLAZA ARENALES,-34.5997308,-58.5111458,Nueva York 3949,1111,28,"['KEY', 'TRANSITCARD', 'PHONE']",['DEVOTO'],1000.0
340,359 - PLAZA BALCARCE,-34.54754,-58.467844,Jaramillo 2312,1111,20,"['KEY', 'TRANSITCARD', 'PHONE']",['Nuñez'],1000.0
342,218 - Campana,-34.616813,-58.484297,1523 Campana,1111,20,"['KEY', 'TRANSITCARD', 'PHONE']",['VILLA SANTA RITA'],1000.0
348,231 - Margariños Cervantes,-34.610482,-58.474369,2465 Margariños Cervantes,1111,12,"['KEY', 'TRANSITCARD', 'PHONE']",['VILLA GENERAL MITRE'],1000.0
349,232 - Sucre y Martinez,-34.5703869,-58.4663122,Mcal. Antonio José de Sucre 3515,C1430,16,"['KEY', 'TRANSITCARD', 'PHONE']",['BELGRANO'],1000.0
353,237 - Madero Office,-34.599036,-58.364695,"367 Sanchez De Thompson, Mariquita",1111,27,"['KEY', 'TRANSITCARD', 'PHONE']",['PUERTO MADERO'],1609.34
355,242 - Plazoleta Rafael del Riego,-34.567483,-58.446381,o´higins 1327,1111,15,"['KEY', 'TRANSITCARD', 'PHONE']",['PALERMO'],1000.0
358,249 - Balbín,-34.561486,-58.465586,2519 Conesa,1111,20,"['KEY', 'TRANSITCARD', 'PHONE']",['BELGRANO'],1000.0
359,250 - Fleni,-34.555602,-58.450479,2292 Montañeses,1111,20,"['KEY', 'TRANSITCARD', 'PHONE']",['BELGRANO'],1000.0
361,258 - Plaza J.J. Paso,-34.569187,-58.453608,1399 Moldes,1111,20,"['KEY', 'TRANSITCARD', 'PHONE']",['COLEGIALES'],1000.0
362,262 - Holmberg,-34.566032515757676,-58.479879186508185,Holmberg 2819 y Nahuel Huapi,C1430,12,"['KEY', 'TRANSITCARD', 'PHONE']",['VILLA URQUIZA'],1000.0
363,354 - José Martí,-34.6439,-58.463114,Eva Perón 3321,1111,16,"['KEY', 'TRANSITCARD', 'PHONE']",['FLORES'],1000.0
364,381 - Matienzo Y Arce,-34.570161,-58.43558,Teniente Benjamín Matienzo 1998,C1426,27,"['KEY', 'TRANSITCARD', 'PHONE']",['PALERMO'],1000.0
366,360 - Plaza Ramon Falcon,-34.6352784,-58.4825327,Cnel. Ramón L. Falcón 3992,C1407,11,"['KEY', 'TRANSITCARD', 'PHONE']",['VELEZ SARFIELD'],1609.34
367,287 - Belaustegui,-34.616659000738366,-58.47770598650817,Belaustegui 2910,C1416,16,"['KEY', 'TRANSITCARD', 'PHONE']",['VILLA SANTA RITA'],1609.34
368,378 - AGRONOMIA,-34.59807,-58.482079,4351 San Martin,1111,12,"['KEY', 'TRANSITCARD', 'PHONE']",['AGRONOMIA'],1000.0
369,304 - Navarro,-34.592244,-58.491797,Navarro 2625,1111,16,"['KEY', 'TRANSITCARD', 'PHONE']",['AGRONOMIA'],1.0
370,305 - Plaza Martin Rodriguez,-34.590964,-58.500336,3016 Pareja,1111,20,"['KEY', 'TRANSITCARD', 'PHONE']",['AGRONOMIA'],1000.0
371,269 - Plaza De La Misericordia,-34.6317,-58.45534,LAUTARO 400,1111,12,"['KEY', 'TRANSITCARD', 'PHONE']",['FLORES'],1000.0
372,322 - MARTÍ Y DIRECTORIO,-34.636406,-58.470136,"404 Marti, Jose",1111,20,"['KEY', 'TRANSITCARD', 'PHONE']",['FLORES'],1000.0
373,265 - Plaza Exodo Jujeño,-34.582336918286785,-58.48108314683206,Liverpool 2812,1111,20,"['KEY', 'TRANSITCARD', 'PHONE']",['PARQUE CHAS'],1609.34
374,367 - Eva Perón,-34.6471,-58.4698,Primera Junta 3898,1111,16,"['KEY', 'TRANSITCARD', 'PHONE']",['PARQUE AVELLANEDA'],1000.0
375,301 - Arregui Y Terrada,-34.604597356692906,-58.48481211614322,2793 Arregui,1111,16,"['KEY', 'TRANSITCARD', 'PHONE']",['VILLA DEL PARQUE'],1609.34
376,324 - Las Victorias,-34.6274033,-58.48811179999999,Av. Gaona 4660,C1407,24,"['KEY', 'TRANSITCARD', 'PHONE']",['FLORESTA'],1000.0
378,215 - HOSPITAL ALVAREZ,-34.623123,-58.468287,Bolivia 683,1111,20,"['KEY', 'TRANSITCARD', 'PHONE']",['FLORES'],1000.0
379,390 - De Los Ombues,-34.5602,-58.4281,Av. de los Ombúes 300,1111,20,"['KEY', 'TRANSITCARD', 'PHONE']",['PALERMO'],1000.0
381,274 - Gavilán,-34.6162466,-58.4658836,Gavilán 1200,111,16,"['KEY', 'TRANSITCARD', 'PHONE']",['VILLA GENERAL MITRE'],1000.0
382,204 - Biarritz,-34.60543081369964,-58.477255218997016,Biarritz 2403,11111,16,"['KEY', 'TRANSITCARD', 'PHONE']",['VILLA DEL PARQUE'],1000.0
383,263 - Plaza Echeverria,-34.5717986,-58.48954089999999,Av. Triunvirato 5100 y Nahuel Huapi 5150,C1431,20,"['KEY', 'TRANSITCARD', 'PHONE']",['VILLA URQUIZA'],1000.0
384,267 - Plaza 25 De Agosto,-34.57951881156862,-58.46183473148808,14 de julio de 1194,1111,18,"['KEY', 'TRANSITCARD', 'PHONE']",['VILLA ORTUZAR'],1609.34
385,268 - Plaza Aristóbulo Del Valle,-34.606159914753725,-58.493141345207654,Campana & Marcos Sastre  ,1111,16,"['KEY', 'TRANSITCARD', 'PHONE']",['VILLA DEL PARQUE'],1000.0
386,277 - Coghlan,-34.5654,-58.4759,2647 Estomba,1111,8,"['KEY', 'TRANSITCARD', 'PHONE']",['COGHLAN'],1000.0
387,278 - Donato Alvarez,-34.602028,-58.465568,"1540 Garcia, Juan Agustin",1111,16,"['KEY', 'TRANSITCARD', 'PHONE']",['PATERNAL'],1000.0
392,297 - TRONADOR Y GARCÍA DEL RÍO,-34.554581,-58.485381,Tronador y Garcia del Rio,1111,16,"['KEY', 'TRANSITCARD', 'PHONE']",['COGHLAN'],1.0
393,300 - Jose Artigas,-34.5902732694463,-58.466932201858796,Av. del Campo 1301,1111,28,"['KEY', 'TRANSITCARD', 'PHONE']",['PATERNAL'],1000.0
395,303 - Huaura,-34.596849288941584,-58.45327985794869,Huaura 1405 y Fitz Roy,1111,16,"['KEY', 'TRANSITCARD', 'PHONE']",['VILLA CRESPO'],1000.0
400,313 - De Los Incas,-34.57899,-58.46982,Av. de los Incas 4138,C1427,20,"['KEY', 'TRANSITCARD', 'PHONE']",['VILLA ORTUZAR'],1000.0
403,316 - Buenos Aires,-34.6446835804428,-58.39387590287583,Suarez 3150,1111,32,"['KEY', 'TRANSITCARD', 'PHONE']",['BARRACAS'],1000.0
407,330 - Parque Avellaneda,-34.6424248,-58.478266,Remedios 3895,C1407,15,"['KEY', 'TRANSITCARD', 'PHONE']",['PARQUE AVELLANEDA'],1000.0
408,364 - CERRETTI Y MANUELA PEDRAZA,-34.56912,-58.50025,Ceretti 3407,1111,16,"['KEY', 'TRANSITCARD', 'PHONE']",['VILLA URQUIZA'],1.0
412,372 - VILLA SOLDATI,-34.6604476,-58.43201680000001,Carlos María Ramírez 2510,C1437,12,"['KEY', 'TRANSITCARD', 'PHONE']",['VILLA SOLDATI'],1000.0
413,382 - MERCADO DE HACIENDA MATADEROS,-34.66181712635796,-58.501330098389026,Av. Lisandro de la Torre 2319,C1440,7,"['KEY', 'TRANSITCARD', 'PHONE']",['MATADEROS'],1000.0
414,385 - Franklin,-34.6112804,-58.4500434,Franklin 1100,1111,16,"['KEY', 'TRANSITCARD', 'PHONE']",['CABALLITO'],1000.0
416,257 - Plaza Francisco Ramirez,-34.553262,-58.469133,"2700 Pedraza, Manuela",1111,28,"['KEY', 'TRANSITCARD', 'PHONE']",['Nuñez'],1000.0
417,127 - PLAZA LEONARDO N. ALEM,-34.57634,-58.50248,Cochrane 2407,1111,20,"['KEY', 'TRANSITCARD', 'PHONE']",['VILLA URQUIZA'],1000.0
418,345 - Plaza Mafalda,-34.5809383,-58.4445804,Conde & Concepción Arenal,1111,16,"['KEY', 'TRANSITCARD', 'PHONE']",['COLEGIALES'],1000.0
420,375 - Ciudad Universitaria I,-34.5446,-58.4396,INTENDENTE GUIRALDES 2160 - PABELLÓN I,1111,16,"['KEY', 'TRANSITCARD', 'PHONE']",['BELGRANO'],1.0
422,379 - PARQUE SARMIENTO II,-34.56454,-58.50289,Alfonsina Storni 3771,1111,16,"['KEY', 'TRANSITCARD', 'PHONE']",['SAAVEDRA'],1.0
423,043 - PLAZA ALBERDI,-34.559255,-58.487772,Crisólogo Larralde 4544,1111,12,"['KEY', 'TRANSITCARD', 'PHONE']",['SAAVEDRA'],1.0
424,387 - Luna,-34.639807,-58.39905,Luna 301,1111,20,"['KEY', 'TRANSITCARD', 'PHONE']",['PARQUE PATRICIOS'],1000.0
425,394 - Av. La Plata,-34.643012510740405,-58.42284285277861,Av. La Plata 2400,C1437,20,"['KEY', 'TRANSITCARD', 'PHONE']",['NUEVA POMPEYA'],1000.0
426,396 - PLAZA ALBERTI,-34.5557,-58.4579,ARCOS 2665,1111,20,"['KEY', 'TRANSITCARD', 'PHONE']",['BELGRANO'],1000.0
427,397 - PARQUE SANTOJANNI,-34.648402,-58.5136448,ACASSUSO 6373,C1408,16,"['KEY', 'TRANSITCARD', 'PHONE']",['LINIERS'],1000.0
428,225 - HOSPITAL TORNU,-34.587458,-58.4739506,1052 Avalos,1111,20,"['KEY', 'TRANSITCARD', 'PHONE']",['PARQUE CHAS'],1000.0
429,201 - PLAZA EJERCITO DE LOS ANDES,-34.63897407331851,-58.51010241799404,Av. Rivadavia y Albariño,1111,16,"['KEY', 'TRANSITCARD', 'PHONE']",['VILLA LURO'],1000.0
431,362 - PARQUE DE LA MEMORIA,-34.542628,-58.436913,Av. Costanera Rafael Obligado 7200,1213,20,"['KEY', 'TRANSITCARD', 'PHONE']",['BELGRANO'],1000.0
432,187 - Jose Maria Moreno,-34.619879,-58.435801,141 Jose Maria Moreno,1111,28,"['KEY', 'TRANSITCARD', 'PHONE']",['CABALLITO'],1000.0
433,273 - Plazoleta Colombia,-34.637697,-58.373726,1619 Brandsen,1111,24,"['KEY', 'TRANSITCARD', 'PHONE']",['BARRACAS'],1000.0
434,247 - PLAZA LUCIO DEMARE,-34.54569,-58.46514,O`Higgins 3750,11111,20,"['KEY', 'TRANSITCARD', 'PHONE']",['Nuñez'],1000.0
435,227 -Club Ciudad de Buenos Aires,-34.544503,-58.459499,Miguel Sanchez y Av Libertadores,1111,23,"['KEY', 'TRANSITCARD', 'PHONE']",['Nuñez'],1000.0
436,253 - Plaza Colegiales,-34.57653,-58.44349,Tte. Benjamin Matienzo 2886,C1426,15,"['KEY', 'TRANSITCARD', 'PHONE']",['PALERMO'],1000.0
440,142 - ARMENIA,-34.5906475,-58.42889899999999,ARMENIA 1525 y GORRITI,C1414,16,"['KEY', 'TRANSITCARD', 'PHONE']",['PALERMO'],1000.0
441,016 - Legislatura,-34.609801,-58.3748,"169 Peru & Roca, Julio A., Presidente Diagonal Sur Av.",1111,17,"['KEY', 'TRANSITCARD', 'PHONE']",['MONSERRAT'],1609.34
444,061 - Ministerio de Economia,-34.608936,-58.370716,"Balcarce e Yrigoyen, Hipolito Av.",1111,24,"['KEY', 'TRANSITCARD', 'PHONE']",['SAN NICOLAS'],1000.0
448,393 - Barrio 31,-34.58209,-58.3788,Islas Galápagos 2800,1111,32,"['KEY', 'TRANSITCARD', 'PHONE']",['RETIRO'],1000.0
449,352 - San Jose de Flores,-34.62883578,-58.463297377,Av. Rivadavia 6955,1111,23,"['KEY', 'TRANSITCARD', 'PHONE']",['FLORES'],1000.0
453,028 - Plaza de la Bandera,-34.6294802,-58.49448539999999,Av. Gaona 5181,C1407,20,"['KEY', 'TRANSITCARD', 'PHONE']",['VELEZ SARFIELD'],1000.0
454,176 - Plaza Derechos del hombre,-34.63403,-58.50694,CORTINA 551,11111,12,"['KEY', 'TRANSITCARD', 'PHONE']",['VILLA LURO'],1000.0
455,039 - Plaza Don Bosco,-34.62652,-58.50805,Elpidio Gonzalez 5181,11111,15,"['KEY', 'TRANSITCARD', 'CREDITCARD', 'PHONE']",['VERSALLES'],1000.0
457,110 - PLAZA CD DE BANFF,-34.62805,-58.52174,ROMA 786,11111,16,"['KEY', 'TRANSITCARD', 'CREDITCARD', 'PHONE']",['VERSALLES'],1000.0
458,219 - Parque Chacabuco II,-34.63642574842393,-58.44400690036916,AV. ASAMBLEA 1400,11111,28,"['KEY', 'TRANSITCARD', 'CREDITCARD', 'PHONE']",['PARQUE CHACABUCO'],1000.0
460,133 - BEIRO Y SEGUROLA,-34.6075,-58.51193,Segurola 3194,11111,16,"['KEY', 'TRANSITCARD', 'PHONE']",['VILLA DEVOTO'],1000.0
461,106 - MOSCONI Y CONSTITUYENTES,-34.58088,-58.49363,CONSTITUYENTES 4710,1111,20,"['KEY', 'TRANSITCARD', 'PHONE']",['PARQUE CHAS'],1000.0
464,377 - CIUDAD UNIVERSITARIA III,-34.541,-58.4441,Intendente Guiraldes 2160 - Pabellón III,1111,28,"['KEY', 'TRANSITCARD', 'PHONE']",['BELGRANO'],1000.0
465,192 - HOSPITAL SIRIO,-34.5904625,-58.5071166,Gabriela Mistral 3325 y Campana,C1419,12,"['KEY', 'TRANSITCARD', 'PHONE']",['VILLA DEVOTO'],1000.0
466,333 - PARQUE DE LA ESTACIÓN,-34.608096,-58.41183969999999,Dr. Tomás Manuel de Anchorena 170,C1170,20,"['KEY', 'TRANSITCARD', 'PHONE']",['ALMAGRO'],1000.0
467,328 - SARMIENTO II,-34.6055135,-58.3958925,Sarmiento 2037,C1044,12,"['KEY', 'TRANSITCARD', 'PHONE']",['BALVANERA'],1000.0
468,084 - TEATRO PICADERO,-34.6042288,-58.3937375,Riobamba 403,1111,8,"['KEY', 'TRANSITCARD', 'PHONE']",['BALVANERA'],1000.0
469,062 - PARQUE ONEGA,-34.5934185,-58.513837,Av. Gral.Mosconi 3780,C1419,16,"['KEY', 'TRANSITCARD', 'PHONE']",['VILLA DEVOTO'],1000.0
471,173 - EL LIBERTADOR,-34.5947293,-58.5033086,Av. San Martín 6220,C1419,12,"['KEY', 'TRANSITCARD', 'PHONE']",['VILLA DEVOTO'],1000.0
472,310 - FREIRE II,-34.5751286,-58.45275609999999,Tte. Gral Ramón Freire 1003,C1426,16,"['KEY', 'TRANSITCARD', 'PHONE']",['COLEGIALES'],1000.0
473,216 - EMILIO LAMARCA,-34.6134032,-58.4933583,EMILIO LAMARCA 2066,C1407,12,"['KEY', 'TRANSITCARD', 'PHONE']",['VILLA SANTA RITA'],1000.0
474,224 - BAIGORRIA,-34.6108915,-58.50301999999999,Baigorria 4101,C1417,16,"['KEY', 'TRANSITCARD', 'PHONE']",['MONTE CASTRO'],1000.0
475,238 - PLAZA LAS TOSCANERAS,-34.6165412,-58.5260181,Ramón Lista 5500 (y Moliere),1111,12,"['KEY', 'TRANSITCARD', 'PHONE']",['VILLA LURO'],1000.0
476,279 - PLAZA MONTE CASTRO,-34.6182924,-58.4985253,Gualeguaychú 1900,1111,12,"['KEY', 'TRANSITCARD', 'PHONE']",['MONTE CASTRO'],1000.0
477,311 - SEC. DE INNOVACION Y TRANSFORMACIÓN,-34.6350046,-58.39505390000001,Av. Caseros 2309,C1264,12,"['KEY', 'TRANSITCARD', 'PHONE']",['PARQUE PATRICIOS'],1000.0
478,015 - AMENABAR,-34.572056,-58.44752359999999,Teodoro García 2613,C1426,12,"['KEY', 'TRANSITCARD', 'PHONE']",['COLEGIALES'],1000.0
479,347 - CARABOBO,-34.6262877,-58.45530009999999,Pumacahua 9,1111,24,"['KEY', 'TRANSITCARD', 'PHONE']",['CABALLITO'],1000.0
480,353 - PLAZA VÉLEZ SARSFIELD,-34.6293335,-58.4836028,Chivilcoy 400,C1407,12,"['KEY', 'TRANSITCARD', 'PHONE']",['FLORESTA'],1000.0
481,369 - PLAZA LARRAZABAL,-34.6430378,-58.5127001,AV. LARRAZABAL 380,C1408,16,"['KEY', 'TRANSITCARD', 'PHONE']",['LINIERS'],1000.0
482,376 - PASEO DE LA COSTANERA,-34.550468,-58.430024,Av. Costanera Rafael Obligado 6200,1111,12,"['KEY', 'TRANSITCARD', 'PHONE']",['PALERMO'],1000.0
483,175 - PLAZA MACKENNA,-34.5436888,-58.4771259,CRAMER 4500,C1429,12,"['KEY', 'TRANSITCARD', 'PHONE']",['SAAVEDRA'],1000.0
484,295 - SUPERÍ,-34.5554843,-58.4768041,NUÑEZ 3486,1111,12,"['KEY', 'TRANSITCARD', 'PHONE']",['SAAVEDRA'],1000.0
485,230 - PASEO DE LA COSTANERA II,-34.553465,-58.42144,Av. Costanera Rafael Obligado 5100,C1428,12,"['KEY', 'TRANSITCARD', 'PHONE']",['PALERMO'],1000.0
486,220 - PLAZA FELIX LIMA,-34.5420905,-58.47056989999999,RAMALLO 2200,C1429,12,"['KEY', 'TRANSITCARD', 'PHONE']",['Nuñez'],1000.0
487,239 - AVENIDA CRAMER,-34.55813699999999,-58.46725929999999,Av. Cramer 2900,C1428,12,"['KEY', 'TRANSITCARD', 'PHONE']",['BELGRANO'],1000.0
488,234 - AVENIDA TRIUNVIRATO,-34.5657087,-58.4952184,Av. Triunvirato 5752,1111,12,"['KEY', 'TRANSITCARD', 'PHONE']",['VILLA URQUIZA'],1000.0
489,288 - SECRETARÍA DE DEPORTES,-34.5476039,-58.4565662,AV LIBERTADOR 7100,C1429,16,"['KEY', 'TRANSITCARD', 'PHONE']",['BELGRANO'],1000.0
490,245 - COSTANERA NORTE,-34.56477054,-58.402021,AV. Costanera Rafael del Obligado 1700,C1425,15,"['KEY', 'TRANSITCARD', 'PHONE']",['PALERMO'],1000.0
491,266 - PLAZA SABATTINI,-34.6122963,-58.44329500000001,COLPAYO 699,C1405,8,"['KEY', 'TRANSITCARD', 'PHONE']",['CABALLITO'],1000.0
492,325 - MEDRANO,-34.6097105,-58.4215633,3905 Bartolomé Mitre,B1678,20,"['KEY', 'TRANSITCARD', 'PHONE']",['ALMAGRO'],1000.0
493,208 - NICASIO OROÑO,-34.5967435,-58.4594031,Nicasio Oroño 2598,C1416,8,"['KEY', 'TRANSITCARD', 'PHONE']",['PATERNAL'],1000.0
494,314 - ALLENDE,-34.6147875,-58.5116722,Allende 2794,C1417,12,"['KEY', 'TRANSITCARD', 'PHONE']",['VILLA DEVOTO'],1000.0
496,052 - CAMPANA II,-34.5831596,-58.5131664,Cochrane 3298 (y Campana),1111,12,"['KEY', 'TRANSITCARD', 'CREDITCARD', 'PHONE']",['VILLA PUYRREDON'],1000.0
497,307 - CERRETTI,-34.5744245,-58.4962318,Ceretti 2892,C1431,12,"['KEY', 'TRANSITCARD', 'PHONE']",['VILLA URQUIZA'],1000.0
498,055 - HABANA,-34.5865976,-58.4949585,Gral. José Gervasio Artigas 4298 (y Habana),C1419,12,"['KEY', 'TRANSITCARD', 'PHONE']",['VILLA PUYRREDON'],1000.0
499,286 - FILOSOFIA Y LETRAS,-34.628556350908276,-58.4468139680066,José Bonifacio 1407,C1406,16,"['KEY', 'TRANSITCARD', 'PHONE']",['CABALLITO'],1000.0
500,235 - COMUNA 13,-34.5532117,-58.46422429999999,Ibera 2377,C1429,16,"['KEY', 'TRANSITCARD', 'PHONE']",['Nuñez'],999.0
501,020 - GRECIA,-34.5492488,-58.46194079999999,Grecia 3290,C1429,16,"['KEY', 'TRANSITCARD', 'PHONE']",['Nuñez'],1000.0
502,296 - SAN ISIDRO LABRADOR,-34.5406752,-58.4752251,Av. San Isidro Labrador 4850,,16,"['KEY', 'TRANSITCARD', 'PHONE']",['SAAVEDRA'],999.0
504,214 - MORÓN,-34.6247196,-58.47518040000001,Morón 3089,C1406,12,"['KEY', 'TRANSITCARD', 'PHONE']",['FLORES'],1000.0
505,337 - AV. J. B. JUSTO,-34.6226411,-58.48202029999999,Emilio Lamarca 915 (y Av. Juan B. Justo),C1407,16,"['KEY', 'TRANSITCARD', 'PHONE']",['VILLA SANTA RITA'],1000.0
506,040 - PARQUE SALGUERO,-34.569435,-58.399369,Av. Costa Salguero 1222,C1425,24,"['KEY', 'TRANSITCARD', 'PHONE']",['PALERMO'],1000.0
507,271 - VILLA SOLDATI II,-34.673248,-58.45531939999999,23 de junio 4249,,24,"['KEY', 'TRANSITCARD', 'PHONE']",['VILLA SOLDATI'],1000.0
508,170 - RAFAELA,-34.6391718,-58.4947858,Rafaela 4811,C1407,12,"['KEY', 'TRANSITCARD', 'PHONE']",['VILLA LURO'],1000.0
509,386 - VELEZ SARSFIELD,-34.6336384,-58.48981,Av. Carrasco 214,C1407,12,"['KEY', 'TRANSITCARD', 'PHONE']",['VELEZ SARFIELD'],1000.0
511,284 - AV. FOREST,-34.575441,-58.462689,Delgado 1569 (y Av. Forest),C1430,16,"['KEY', 'TRANSITCARD', 'PHONE']",['VILLA ORTUZAR'],1000.0
512,195 - PARQUE CHAS,-34.5816148,-58.4750569,Av. De los Incas 4535,C1427,20,"['KEY', 'TRANSITCARD', 'PHONE']",['PARQUE CHAS'],1000.0
513,308 - SAN MARTIN II,-34.597129699999996,-58.490739,Av. San Martín 5129,,12,"['KEY', 'TRANSITCARD', 'PHONE']",['AGRONOMIA'],1000.0
515,294 - PLAZOLETA RÍO DE LA PLATA,-34.57424606980564,-58.41465533223049,Av. Sarmiento 500,,16,"['KEY', 'TRANSITCARD', 'PHONE']",['PALERMO'],1000.0
516,368 - PLAZA DE LA SHOÁ,-34.5709984,-58.4233469,Av. Del Libertador 3899,,20,"['KEY', 'TRANSITCARD', 'PHONE']",['PALERMO'],1000.0
517,332 - PACÍFICO II,-34.5745008,-58.42481399999999,Av. Int. Bullrich 300,,16,"['KEY', 'TRANSITCARD', 'PHONE']",['PALERMO'],1000.0
518,329 - LAS CAÑITAS,-34.5738986,-58.43178200000001,Clay 2818,C1426,12,"['KEY', 'TRANSITCARD', 'PHONE']",['PALERMO'],1000.0
519,053 - AV. DEL LIBERTADOR ,-34.59291496187579,-58.3754427116394,Av. Del Libertador 100,,20,"['KEY', 'TRANSITCARD', 'PHONE']",['RETIRO'],1000.0
520,180 - PARQUE OLIMPICO,-34.67263155698435,-58.445517873322615,Av. Coronel Roca 5252 (dentro del Parque Olímpico). ,C1437,20,"['KEY', 'TRANSITCARD', 'PHONE']",['VILLA SOLDATI'],1000.0
521,226 - AV. WARNES,-34.59646530000001,-58.4663841,Av. Warnes 2150,C1427,16,"['KEY', 'TRANSITCARD', 'PHONE']",['PATERNAL'],1000.0
522,119 - PLAZOLETA BENEDIT,-34.6022435,-58.4425482,Av. Warnes y Av. R. Scalabrini Ortiz,,16,"['KEY', 'TRANSITCARD', 'PHONE']",['VILLA CRESPO'],1000.0
524,338 - AV. CABILDO,-34.557933,-58.4607027,Av. Cabildo 2586,C1428,12,"['KEY', 'TRANSITCARD', 'PHONE']",['BELGRANO'],1000.0
525,317 - ESCUELA RAGGIO,-34.536691,-58.4668133,Av. Libertador 8620 (y Pico),C1429,16,"['KEY', 'TRANSITCARD', 'PHONE']",['Nuñez'],1000.0
526,088 - NUÑEZ ,-34.54162804074317,-58.46340407324712,Comodoro Martín Rivadavia 1630,C1429,12,"['KEY', 'TRANSITCARD', 'PHONE']",['Nuñez'],1000.0
527,068 - AV. CORDOBA,-34.588727,-58.43838599999999,Av. Cordoba 5403,,12,"['KEY', 'TRANSITCARD', 'PHONE']",['VILLA CRESPO'],1000.0
528,042 - Skate Park Villa Luro,-34.6367055,-58.49528569999999, Av. Rivadavia 9301,C1407,16,"['KEY', 'TRANSITCARD', 'PHONE']",['VILLA LURO'],1000.0
529,011 - RIO DE JANEIRO,-34.61325931284073,-58.43011879451216,Río de Janeiro 205,C1405,18,"['KEY', 'TRANSITCARD', 'PHONE']",['ALMAGRO'],1000.0
530,031 - PARQUE RIVADAVIA,-34.61651103390999,-58.43235024128228,Av Rivadavia 4950,C1424,20,"['KEY', 'TRANSITCARD', 'PHONE']",['CABALLITO'],1000.0
531,048 - JOSE AMALFITANI,-34.63362230949344,-58.52125773107453,Av. Juan Bautista Justo 6383,C1407,20,"['KEY', 'TRANSITCARD', 'PHONE']",['VERSALLES'],1000.0
532,072 - INSTITUTO POLITÉCNICO MODELO,-34.573033051099245,-58.5039082871025,Av Constituyentes 5880,C1431,20,"['KEY', 'TRANSITCARD', 'PHONE']",['VILLA URQUIZA'],1000.0
533,077 - CRISOLOGO LARRALDE,-34.56119069896605,-58.4920304128975,Galván 3601,,20,"['KEY', 'TRANSITCARD', 'PHONE']",['SAAVEDRA'],1000.0
534,081 - PARQUE DE LAS CIENCIAS,-34.5829625,-58.42997930000001,Soler 5300 ,,24,"['KEY', 'TRANSITCARD', 'PHONE']",['PALERMO'],1000.0
535,090 - HONORIO PUEYRREDON,-34.60251720000001,-58.44965897301637,Honorio Pueyrredón 1653,C1414,20,"['KEY', 'TRANSITCARD', 'PHONE']",['VILLA CRESPO'],1000.0
536,019 - PLAZA  SAN MARTIN,-34.5954737,-58.37748229999999,Av. Santa Fe 716,C1006,20,"['KEY', 'TRANSITCARD', 'PHONE']",['RETIRO'],1000.0
537,389 - Av. ELCANO,-34.57080828710083,-58.45806148960133,Av. ELCANO 3000,C1426,12,"['KEY', 'TRANSITCARD', 'PHONE']",['COLEGIALES'],1000.0
538,047 - PARQUE DE LA INNOVACIÓN,-34.545091,-58.451432,Av. G. Udaondo 1146,C1428,16,"['KEY', 'TRANSITCARD', 'PHONE']",['Nuñez'],1000.0
